$$SOE
2460154.500000000, A.D. 2023-Jul-29 00:00:00.0000, 3.691123858028976E+08, -2.029147519893230E+08, -5.145307786426365E+06,
2460161.500000000, A.D. 2023-Aug-05 00:00:00.0000, 3.719889159431689E+08, -1.936019062657827E+08, -8.134767667557538E+06,
2460168.500000000, A.D. 2023-Aug-12 00:00:00.0000, 3.746206880333683E+08, -1.841616371788163E+08, -1.111887082656978E+07,
2460175.500000000, A.D. 2023-Aug-19 00:00:00.0000, 3.770026884868035E+08, -1.745985437899634E+08, -1.409555588787950E+07,
2460182.500000000, A.D. 2023-Aug-26 00:00:00.0000, 3.791299050830873E+08, -1.649174174605553E+08, -1.706270967838536E+07,
2460189.500000000, A.D. 2023-Sep-02 00:00:00.0000, 3.809973316265562E+08, -1.551232497428983E+08, -2.001816584977229E+07,
2460196.500000000, A.D. 2023-Sep-09 00:00:00.0000, 3.825999731559443E+08, -1.452212406096758E+08, -2.295970354117811E+07,
2460203.500000000, A.D. 2023-Sep-16 00:00:00.0000, 3.839328519126209E+08, -1.352168070648119E+08, -2.588504611124300E+07,
2460210.500000000, A.D. 2023-Sep-23 00:00:00.0000, 3.849910145278513E+08, -1.251155918310565E+08, -2.879185996415593E+07,
2460217.500000000, A.D. 2023-Sep-30 00:00:00.0000, 3.857695401402824E+08, -1.149234709041180E+08, -3.167775335255633E+07,
2460224.500000000, A.D. 2023-Oct-07 00:00:00.0000, 3.862635471451368E+08, -1.046465604980527E+08, -3.454027499920117E+07,
2460231.500000000, A.D. 2023-Oct-14 00:00:00.0000, 3.864681996671049E+08, -9.429122667487082E+07, -3.737691291902314E+07,
2460238.500000000, A.D. 2023-Oct-21 00:00:00.0000, 3.863787170349860E+08, -8.386409602724671E+07, -4.018509362356653E+07,
2460245.500000000, A.D. 2023-Oct-28 00:00:00.0000, 3.859903848862723E+08, -7.337206511881006E+07, -4.296218141074719E+07,
2460252.500000000, A.D. 2023-Nov-04 00:00:00.0000, 3.852985667068006E+08, -6.282230941153520E+07, -4.570547770836537E+07,
2460259.500000000, A.D. 2023-Nov-11 00:00:00.0000, 3.842987160390577E+08, -5.222229223260004E+07, -4.841222055871175E+07,
2460266.500000000, A.D. 2023-Nov-18 00:00:00.0000, 3.829863896353149E+08, -4.157977378990445E+07, -5.107958429369725E+07,
2460273.500000000, A.D. 2023-Nov-25 00:00:00.0000, 3.813572616856613E+08, -3.090282015038972E+07, -5.370467943157876E+07,
2460280.500000000, A.D. 2023-Dec-02 00:00:00.0000, 3.794071392065738E+08, -2.019981212039676E+07, -5.628455282741972E+07,
2460287.500000000, A.D. 2023-Dec-09 00:00:00.0000, 3.771319787246803E+08, -9.479454006124234E+06, -5.881618812046559E+07,
2460294.500000000, A.D. 2023-Dec-16 00:00:00.0000, 3.745279045970846E+08, 1.249217848454971E+06, -6.129650653743071E+07,
2460301.500000000, A.D. 2023-Dec-23 00:00:00.0000, 3.715912293648775E+08, 1.197682753578890E+07, -6.372236806290852E+07,
2460308.500000000, A.D. 2023-Dec-30 00:00:00.0000, 3.683184748463054E+08, 2.269365423746478E+07, -6.609057280622118E+07,
2460315.500000000, A.D. 2024-Jan-06 00:00:00.0000, 3.647063922448846E+08, 3.338962682161339E+07, -6.839786263735805E+07,
2460322.500000000, A.D. 2024-Jan-13 00:00:00.0000, 3.607519844815516E+08, 4.405431671367025E+07, -7.064092357508025E+07,
2460329.500000000, A.D. 2024-Jan-20 00:00:00.0000, 3.564525319969076E+08, 5.467693227689220E+07, -7.281638883244118E+07,
2460336.500000000, A.D. 2024-Jan-27 00:00:00.0000, 3.518056200091999E+08, 6.524631552233809E+07, -7.492084232772428E+07,
2460343.500000000, A.D. 2024-Feb-03 00:00:00.0000, 3.468091668027903E+08, 7.575094038044854E+07, -7.695082274858481E+07,
2460350.500000000, A.D. 2024-Feb-10 00:00:00.0000, 3.414614533118621E+08, 8.617891243736912E+07, -7.890282826945662E+07,
2460357.500000000, A.D. 2024-Feb-17 00:00:00.0000, 3.357611541069490E+08, 9.651797035190491E+07, -8.077332198576815E+07,
2460364.500000000, A.D. 2024-Feb-24 00:00:00.0000, 3.297073697679700E+08, 1.067554891891181E+08, -8.255873811858176E+07,
2460371.500000000, A.D. 2024-Mar-02 00:00:00.0000, 3.232996605970350E+08, 1.168784858716222E+08, -8.425548904594433E+07,
2460378.500000000, A.D. 2024-Mar-09 00:00:00.0000, 3.165380817072782E+08, 1.268736269298664E+08, -8.585997322854732E+07,
2460385.500000000, A.D. 2024-Mar-16 00:00:00.0000, 3.094232197499874E+08, 1.367272389995352E+08, -8.736858409694985E+07,
2460392.500000000, A.D. 2024-Mar-23 00:00:00.0000, 3.019562310049056E+08, 1.464253234300154E+08, -8.877771984118843E+07,
2460399.500000000, A.D. 2024-Mar-30 00:00:00.0000, 2.941388783824116E+08, 1.559535752410930E+08, -9.008379393426049E+07,
2460406.500000000, A.D. 2024-Apr-06 00:00:00.0000, 2.859735673542005E+08, 1.652974033255424E+08, -9.128324672135101E+07,
2460413.500000000, A.D. 2024-Apr-13 00:00:00.0000, 2.774633840798490E+08, 1.744419529844844E+08, -9.237255835599409E+07,
2460420.500000000, A.D. 2024-Apr-20 00:00:00.0000, 2.686121344407437E+08, 1.833721337113206E+08, -9.334826278697944E+07,
2460427.500000000, A.D. 2024-Apr-27 00:00:00.0000, 2.594243820836687E+08, 1.920726518869809E+08, -9.420696270135675E+07,
2460434.500000000, A.D. 2024-May-04 00:00:00.0000, 2.499054851365413E+08, 2.005280478803233E+08, -9.494534547411060E+07,
2460441.500000000, A.D. 2024-May-11 00:00:00.0000, 2.400616313619367E+08, 2.087227376122554E+08, -9.556020012189013E+07,
2460448.500000000, A.D. 2024-May-18 00:00:00.0000, 2.298998713096981E+08, 2.166410587199462E+08, -9.604843521191648E+07,
2460455.500000000, A.D. 2024-May-25 00:00:00.0000, 2.194281489257109E+08, 2.242673213763261E+08, -9.640709764967956E+07,
2460462.500000000, A.D. 2024-Jun-01 00:00:00.0000, 2.086553290672476E+08, 2.315858637125026E+08, -9.663339225222951E+07,
2460469.500000000, A.D. 2024-Jun-08 00:00:00.0000, 1.975912215311416E+08, 2.385811117613084E+08, -9.672470200741550E+07,
2460476.500000000, A.D. 2024-Jun-15 00:00:00.0000, 1.862466013380879E+08, 2.452376443306481E+08, -9.667860886801471E+07,
2460483.500000000, A.D. 2024-Jun-22 00:00:00.0000, 1.746332236029782E+08, 2.515402637471694E+08, -9.649291472323303E+07,
2460490.500000000, A.D. 2024-Jun-29 00:00:00.0000, 1.627638301968121E+08, 2.574740703142380E+08, -9.616566230060525E+07,
2460497.500000000, A.D. 2024-Jul-06 00:00:00.0000, 1.506521501917544E+08, 2.630245375851440E+08, -9.569515622234002E+07,
2460504.500000000, A.D. 2024-Jul-13 00:00:00.0000, 1.383128954228695E+08, 2.681775907310256E+08, -9.507998391906114E+07,
2460511.500000000, A.D. 2024-Jul-20 00:00:00.0000, 1.257617486047542E+08, 2.729196884920842E+08, -9.431903585060661E+07,
2460518.500000000, A.D. 2024-Jul-27 00:00:00.0000, 1.130153428368928E+08, 2.772379069901221E+08, -9.341152476074263E+07,
2460525.500000000, A.D. 2024-Aug-03 00:00:00.0000, 1.000912323509164E+08, 2.811200241646583E+08, -9.235700371893838E+07,
2460532.500000000, A.D. 2024-Aug-10 00:00:00.0000, 8.700785435493679E+07, 2.845546038717003E+08, -9.115538265527476E+07,
2460539.500000000, A.D. 2024-Aug-17 00:00:00.0000, 7.378448183905999E+07, 2.875310786293264E+08, -8.980694308065397E+07,
2460546.500000000, A.D. 2024-Aug-24 00:00:00.0000, 6.044116733094893E+07, 2.900398298859808E+08, -8.831235069258332E+07,
2460553.500000000, A.D. 2024-Aug-31 00:00:00.0000, 4.699867783648166E+07, 2.920722646046582E+08, -8.667266559223324E+07,
2460560.500000000, A.D. 2024-Sep-07 00:00:00.0000, 3.347842161920622E+07, 2.936208871256357E+08, -8.488934986895332E+07,
2460567.500000000, A.D. 2024-Sep-14 00:00:00.0000, 1.990236736869406E+07, 2.946793661508009E+08, -8.296427224465445E+07,
2460574.500000000, A.D. 2024-Sep-21 00:00:00.0000, 6.292954377052464E+06, 2.952425961438259E+08, -8.089970936279306E+07,
2460581.500000000, A.D. 2024-Sep-28 00:00:00.0000, -7.327005947370775E+06, 2.953067488548629E+08, -7.869834378282836E+07,
2460588.500000000, A.D. 2024-Oct-05 00:00:00.0000, -2.093443259273170E+07, 2.948693140177320E+08, -7.636325891696347E+07,
2460595.500000000, A.D. 2024-Oct-12 00:00:00.0000, -3.450608071777908E+07, 2.939291313827644E+08, -7.389793059964764E+07,
2460602.500000000, A.D. 2024-Oct-19 00:00:00.0000, -4.801865118448474E+07, 2.924864131376132E+08, -7.130621517222631E+07,
2460609.500000000, A.D. 2024-Oct-26 00:00:00.0000, -6.144890253644159E+07, 2.905427554112594E+08, -6.859233422734584E+07,
2460616.500000000, A.D. 2024-Nov-02 00:00:00.0000, -7.477376375507729E+07, 2.881011384049574E+08, -6.576085619548792E+07,
2460623.500000000, A.D. 2024-Nov-09 00:00:00.0000, -8.797044625383893E+07, 2.851659150679776E+08, -6.281667498838630E+07,
2460630.500000000, A.D. 2024-Nov-16 00:00:00.0000, -1.010165536448470E+08, 2.817427884248522E+08, -5.976498596516639E+07,
2460637.500000000, A.D. 2024-Nov-23 00:00:00.0000, -1.138901878314896E+08, 2.778387778180513E+08, -5.661125954254710E+07,
2460644.500000000, A.D. 2024-Nov-30 00:00:00.0000, -1.265700498940712E+08, 2.734621745360224E+08, -5.336121282613063E+07,
2460651.500000000, A.D. 2024-Dec-07 00:00:00.0000, -1.390355341325715E+08, 2.686224879437503E+08, -5.002077965373352E+07,
2460658.500000000, A.D. 2024-Dec-14 00:00:00.0000, -1.512668148767299E+08, 2.633303842026457E+08, -4.659607929811499E+07,
2460665.500000000, A.D. 2024-Dec-21 00:00:00.0000, -1.632449274597875E+08, 2.575976173461522E+08, -4.309338414172234E+07,
2460672.500000000, A.D. 2024-Dec-28 00:00:00.0000, -1.749518406266201E+08, 2.514369508507684E+08, -3.951908716595005E+07,
2460679.500000000, A.D. 2025-Jan-04 00:00:00.0000, -1.863705172208136E+08, 2.448620732547003E+08, -3.587966970729010E+07,
2460686.500000000, A.D. 2025-Jan-11 00:00:00.0000, -1.974849646143357E+08, 2.378875107255662E+08, -3.218166957572912E+07,
2460693.500000000, A.D. 2025-Jan-18 00:00:00.0000, -2.082802756170049E+08, 2.305285369170044E+08, -2.843164989488860E+07,
2460700.500000000, A.D. 2025-Jan-25 00:00:00.0000, -2.187426596225716E+08, 2.228010808747518E+08, -2.463616905546094E+07,
2460707.500000000, A.D. 2025-Feb-01 00:00:00.0000, -2.288594639738787E+08, 2.147216341529622E+08, -2.080175209257052E+07,
2460714.500000000, A.D. 2025-Feb-08 00:00:00.0000, -2.386191858139905E+08, 2.063071582835688E+08, -1.693486373868416E+07,
2460721.500000000, A.D. 2025-Feb-15 00:00:00.0000, -2.480114748538880E+08, 1.975749936128605E+08, -1.304188335952191E+07,
$$EOE